ONEWEB-0716             
1 55177U 23004AP  25319.66451428 -.00000043  00000+0 -14335-3 0  9997
2 55177  87.9131  48.3320 0001949 106.4666 253.6680 13.17650806139468
ONEWEB-0717             
1 55178U 23004AQ  25319.72356881  .00000033  00000+0  51707-4 0  9994
2 55178  87.9141  48.2888 0001040  90.0926 270.0324 13.17651885139520
ONEWEB-0719             
1 55179U 23004AR  25319.50587985  .00000053  00000+0  10421-3 0  9991
2 55179  87.9143  48.3148 0001730 110.2929 249.8388 13.17652714139444
ONEWEB-0530             
1 55796U 23029A   25319.45631522  .00000013  00000+0 -93465-6 0  9993
2 55796  87.9180 317.1103 0001329  91.2341 268.8945 13.20772331132937
ONEWEB-0534             
1 55797U 23029B   25319.44369211  .00000000  00000+0 -31713-4 0  9998
2 55797  87.9175 317.1138 0001912  93.5569 266.5783 13.20771771132937
ONEWEB-0556             
1 55798U 23029C   25319.44998027 -.00003670  00000+0 -90601-2 0  9998
2 55798  87.9180 317.1114 0002014 116.1407 243.9934 13.20789569132936
ONEWEB-0562             
1 55799U 23029D   25319.74037534  .00000018  00000+0  11398-4 0  9998
2 55799  87.9175 317.0369 0001117 113.1472 246.9779 13.20774003132975
ONEWEB-0563             
1 55800U 23029E   25319.50682264 -.00000113  00000+0 -31085-3 0  9993
2 55800  87.9184 317.1097 0002076  96.8867 263.2503 13.20772030132938
